CCSDS_OMM_VERS = 2.0
CREATION_DATE  = 
ORIGINATOR     = 

OBJECT_NAME    = UNKNOWN
OBJECT_ID      = 
CENTER_NAME    = EARTH
REF_FRAME      = TEME
TIME_SYSTEM    = UTC
MEAN_ELEMENT_THEORY = SGP/SGP4

EPOCH          = 2025-10-29T17:10:03.219456
MEAN_MOTION    = 14.36694292
ECCENTRICITY   = .0208437
INCLINATION    = 98.0304
RA_OF_ASC_NODE = 40.0042
ARG_OF_PERICENTER = 261.2036
MEAN_ANOMALY   = 96.5498

EPHEMERIS_TYPE = 0
CLASSIFICATION_TYPE = U
NORAD_CAT_ID   = 85217
ELEMENT_SET_NO = 999
REV_AT_EPOCH   = 62153
BSTAR          = .10038E-2
MEAN_MOTION_DOT = .3748E-4
MEAN_MOTION_DDOT = 0

CCSDS_OMM_VERS = 2.0
CREATION_DATE  = 
ORIGINATOR     = 

OBJECT_NAME    = UNKNOWN
OBJECT_ID      = 
CENTER_NAME    = EARTH
REF_FRAME      = TEME
TIME_SYSTEM    = UTC
MEAN_ELEMENT_THEORY = SGP/SGP4

EPOCH          = 2025-10-28T11:57:06.048288
MEAN_MOTION    = 13.99983230
ECCENTRICITY   = .0511538
INCLINATION    = 65.5350
RA_OF_ASC_NODE = 333.5415
ARG_OF_PERICENTER = 48.4748
MEAN_ANOMALY   = 315.9051

EPHEMERIS_TYPE = 0
CLASSIFICATION_TYPE = U
NORAD_CAT_ID   = 85237
ELEMENT_SET_NO = 999
REV_AT_EPOCH   = 60201
BSTAR          = .10732E-2
MEAN_MOTION_DOT = .4906E-4
MEAN_MOTION_DDOT = 0

CCSDS_OMM_VERS = 2.0
CREATION_DATE  = 
ORIGINATOR     = 

OBJECT_NAME    = UNKNOWN
OBJECT_ID      = 
CENTER_NAME    = EARTH
REF_FRAME      = TEME
TIME_SYSTEM    = UTC
MEAN_ELEMENT_THEORY = SGP/SGP4

EPOCH          = 2025-10-28T18:48:08.226720
MEAN_MOTION    = 13.88330026
ECCENTRICITY   = .0062887
INCLINATION    = 99.0550
RA_OF_ASC_NODE = 232.2631
ARG_OF_PERICENTER = 323.0799
MEAN_ANOMALY   = 65.1563

EPHEMERIS_TYPE = 0
CLASSIFICATION_TYPE = U
NORAD_CAT_ID   = 85238
ELEMENT_SET_NO = 999
REV_AT_EPOCH   = 60460
BSTAR          = .11541E-3
MEAN_MOTION_DOT = .97E-6
MEAN_MOTION_DDOT = 0

CCSDS_OMM_VERS = 2.0
CREATION_DATE  = 
ORIGINATOR     = 

OBJECT_NAME    = UNKNOWN
OBJECT_ID      = 
CENTER_NAME    = EARTH
REF_FRAME      = TEME
TIME_SYSTEM    = UTC
MEAN_ELEMENT_THEORY = SGP/SGP4

EPOCH          = 2025-10-29T23:28:44.533344
MEAN_MOTION    = 14.21247937
ECCENTRICITY   = .0225165
INCLINATION    = 97.9887
RA_OF_ASC_NODE = 310.5923
ARG_OF_PERICENTER = 73.1672
MEAN_ANOMALY   = 289.4071

EPHEMERIS_TYPE = 0
CLASSIFICATION_TYPE = U
NORAD_CAT_ID   = 85246
ELEMENT_SET_NO = 999
REV_AT_EPOCH   = 61685
BSTAR          = .71994E-3
MEAN_MOTION_DOT = .1989E-4
MEAN_MOTION_DDOT = 0

CCSDS_OMM_VERS = 2.0
CREATION_DATE  = 
ORIGINATOR     = 

OBJECT_NAME    = UNKNOWN
OBJECT_ID      = 
CENTER_NAME    = EARTH
REF_FRAME      = TEME
TIME_SYSTEM    = UTC
MEAN_ELEMENT_THEORY = SGP/SGP4

EPOCH          = 2025-10-29T07:28:50.172384
MEAN_MOTION    = 13.99696129
ECCENTRICITY   = .0047422
INCLINATION    = 100.4213
RA_OF_ASC_NODE = 332.2652
ARG_OF_PERICENTER = 354.3652
MEAN_ANOMALY   = 66.8761

EPHEMERIS_TYPE = 0
CLASSIFICATION_TYPE = U
NORAD_CAT_ID   = 85373
ELEMENT_SET_NO = 999
REV_AT_EPOCH   = 60591
BSTAR          = .2054E-2
MEAN_MOTION_DOT = .298E-4
MEAN_MOTION_DDOT = 0

CCSDS_OMM_VERS = 2.0
CREATION_DATE  = 
ORIGINATOR     = 

OBJECT_NAME    = UNKNOWN
OBJECT_ID      = 
CENTER_NAME    = EARTH
REF_FRAME      = TEME
TIME_SYSTEM    = UTC
MEAN_ELEMENT_THEORY = SGP/SGP4

EPOCH          = 2025-10-29T16:34:10.937568
MEAN_MOTION    = 13.51560096
ECCENTRICITY   = .0057535
INCLINATION    = 100.4961
RA_OF_ASC_NODE = 264.5263
ARG_OF_PERICENTER = 346.5771
MEAN_ANOMALY   = 192.6969

EPHEMERIS_TYPE = 0
CLASSIFICATION_TYPE = U
NORAD_CAT_ID   = 87014
ELEMENT_SET_NO = 999
REV_AT_EPOCH   = 58496
BSTAR          = .51012E-2
MEAN_MOTION_DOT = .3312E-4
MEAN_MOTION_DDOT = 0

CCSDS_OMM_VERS = 2.0
CREATION_DATE  = 
ORIGINATOR     = 

OBJECT_NAME    = UNKNOWN
OBJECT_ID      = 
CENTER_NAME    = EARTH
REF_FRAME      = TEME
TIME_SYSTEM    = UTC
MEAN_ELEMENT_THEORY = SGP/SGP4

EPOCH          = 2025-10-27T09:15:38.481984
MEAN_MOTION    = 14.06990901
ECCENTRICITY   = .0043029
INCLINATION    = 98.7199
RA_OF_ASC_NODE = 345.2612
ARG_OF_PERICENTER = 224.4515
MEAN_ANOMALY   = 135.3199

EPHEMERIS_TYPE = 0
CLASSIFICATION_TYPE = U
NORAD_CAT_ID   = 87042
ELEMENT_SET_NO = 999
REV_AT_EPOCH   = 54744
BSTAR          = .59238E-3
MEAN_MOTION_DOT = .955E-5
MEAN_MOTION_DDOT = 0

CCSDS_OMM_VERS = 2.0
CREATION_DATE  = 
ORIGINATOR     = 

OBJECT_NAME    = UNKNOWN
OBJECT_ID      = 
CENTER_NAME    = EARTH
REF_FRAME      = TEME
TIME_SYSTEM    = UTC
MEAN_ELEMENT_THEORY = SGP/SGP4

EPOCH          = 2025-10-29T11:04:16.656096
MEAN_MOTION    = 13.45680616
ECCENTRICITY   = .0719044
INCLINATION    = 65.7307
RA_OF_ASC_NODE = 359.8664
ARG_OF_PERICENTER = 161.6193
MEAN_ANOMALY   = 201.2353

EPHEMERIS_TYPE = 0
CLASSIFICATION_TYPE = U
NORAD_CAT_ID   = 87051
ELEMENT_SET_NO = 999
REV_AT_EPOCH   = 58262
BSTAR          = .96895E-3
MEAN_MOTION_DOT = .282E-4
MEAN_MOTION_DDOT = 0

CCSDS_OMM_VERS = 2.0
CREATION_DATE  = 
ORIGINATOR     = 

OBJECT_NAME    = UNKNOWN
OBJECT_ID      = 
CENTER_NAME    = EARTH
REF_FRAME      = TEME
TIME_SYSTEM    = UTC
MEAN_ELEMENT_THEORY = SGP/SGP4

EPOCH          = 2025-10-29T09:46:31.839744
MEAN_MOTION    = 14.10802563
ECCENTRICITY   = .0013194
INCLINATION    = 100.0929
RA_OF_ASC_NODE = 176.4005
ARG_OF_PERICENTER = 99.1781
MEAN_ANOMALY   = 261.0879

EPHEMERIS_TYPE = 0
CLASSIFICATION_TYPE = U
NORAD_CAT_ID   = 87054
ELEMENT_SET_NO = 999
REV_AT_EPOCH   = 61007
BSTAR          = .1408E-2
MEAN_MOTION_DOT = .2469E-4
MEAN_MOTION_DDOT = 0

CCSDS_OMM_VERS = 2.0
CREATION_DATE  = 
ORIGINATOR     = 

OBJECT_NAME    = UNKNOWN
OBJECT_ID      = 
CENTER_NAME    = EARTH
REF_FRAME      = TEME
TIME_SYSTEM    = UTC
MEAN_ELEMENT_THEORY = SGP/SGP4

EPOCH          = 2025-10-27T16:22:00.679584
MEAN_MOTION    = 13.84857813
ECCENTRICITY   = .0485441
INCLINATION    = 61.2214
RA_OF_ASC_NODE = 48.6495
ARG_OF_PERICENTER = 214.3657
MEAN_ANOMALY   = 142.5074

EPHEMERIS_TYPE = 0
CLASSIFICATION_TYPE = U
NORAD_CAT_ID   = 87071
ELEMENT_SET_NO = 999
REV_AT_EPOCH   = 59610
BSTAR          = .39929E-2
MEAN_MOTION_DOT = .11307E-3
MEAN_MOTION_DDOT = 0

CCSDS_OMM_VERS = 2.0
CREATION_DATE  = 
ORIGINATOR     = 

OBJECT_NAME    = UNKNOWN
OBJECT_ID      = 
CENTER_NAME    = EARTH
REF_FRAME      = TEME
TIME_SYSTEM    = UTC
MEAN_ELEMENT_THEORY = SGP/SGP4

EPOCH          = 2025-10-06T02:25:33.363840
MEAN_MOTION    = 15.85548661
ECCENTRICITY   = .0031772
INCLINATION    = 65.5997
RA_OF_ASC_NODE = 277.2947
ARG_OF_PERICENTER = 239.2111
MEAN_ANOMALY   = 120.5927

EPHEMERIS_TYPE = 0
CLASSIFICATION_TYPE = U
NORAD_CAT_ID   = 87113
ELEMENT_SET_NO = 999
REV_AT_EPOCH   = 62556
BSTAR          = .71219E-2
MEAN_MOTION_DOT = .1762118E-1
MEAN_MOTION_DDOT = .14827E-2

CCSDS_OMM_VERS = 2.0
CREATION_DATE  = 
ORIGINATOR     = 

OBJECT_NAME    = UNKNOWN
OBJECT_ID      = 
CENTER_NAME    = EARTH
REF_FRAME      = TEME
TIME_SYSTEM    = UTC
MEAN_ELEMENT_THEORY = SGP/SGP4

EPOCH          = 2025-10-27T17:21:00.316512
MEAN_MOTION    = 12.42791632
ECCENTRICITY   = .0034494
INCLINATION    = 102.2638
RA_OF_ASC_NODE = 31.1389
ARG_OF_PERICENTER = 171.8345
MEAN_ANOMALY   = 188.3287

EPHEMERIS_TYPE = 0
CLASSIFICATION_TYPE = U
NORAD_CAT_ID   = 87129
ELEMENT_SET_NO = 999
REV_AT_EPOCH   = 54095
BSTAR          = .19967E-2
MEAN_MOTION_DOT = .231E-5
MEAN_MOTION_DDOT = 0

