UNKNOWN                 
1 85217U          25302.71531504  .00003748  00000+0  10038-2 0  9996
2 85217  98.0304  40.0042 0208437 261.2036  96.5498 14.36694292621537
UNKNOWN                 
1 85237U          25301.49798667  .00004906  00000+0  10732-2 0  9995
2 85237  65.5350 333.5415 0511538  48.4748 315.9051 13.99983230602013
UNKNOWN                 
1 85238U          25301.78342855  .00000097  00000+0  11541-3 0  9999
2 85238  99.0550 232.2631 0062887 323.0799  65.1563 13.88330026604605
UNKNOWN                 
1 85246U          25302.97829321  .00001989  00000+0  71994-3 0  9997
2 85246  97.9887 310.5923 0225165  73.1672 289.4071 14.21247937616852
UNKNOWN                 
1 85373U          25302.31169181  .00002980  00000+0  20540-2 0  9999
2 85373 100.4213 332.2652 0047422 354.3652  66.8761 13.99696129605919
UNKNOWN                 
1 87014U          25302.69040437  .00003312  00000+0  51012-2 0  9994
2 87014 100.4961 264.5263 0057535 346.5771 192.6969 13.51560096584969
UNKNOWN                 
1 87042U          25300.38586206  .00000955  00000+0  59238-3 0  9997
2 87042  98.7199 345.2612 0043029 224.4515 135.3199 14.06990901547444
UNKNOWN                 
1 87051U          25302.46130389  .00002820  00000+0  96895-3 0  9998
2 87051  65.7307 359.8664 0719044 161.6193 201.2353 13.45680616582623
UNKNOWN                 
1 87054U          25302.40731296  .00002469  00000+0  14080-2 0  9993
2 87054 100.0929 176.4005 0013194  99.1781 261.0879 14.10802563610070
UNKNOWN                 
1 87071U          25300.68195231  .00011307  00000+0  39929-2 0  9993
2 87071  61.2214  48.6495 0485441 214.3657 142.5074 13.84857813596103
UNKNOWN                 
1 87113U          25279.10108060  .01762118  14827-2  71219-2 0  9993
2 87113  65.5997 277.2947 0031772 239.2111 120.5927 15.85548661625569
UNKNOWN                 
1 87129U          25300.72292033  .00000231  00000+0  19967-2 0  9994
2 87129 102.2638  31.1389 0034494 171.8345 188.3287 12.42791632540956
